[{"OBJECT_NAME":"STARLINK-6342","OBJECT_ID":"2023-078D","EPOCH":"2026-03-09T22:24:55.514304","MEAN_MOTION":14.98338533,"ECCENTRICITY":0.00023541,"INCLINATION":70.002,"RA_OF_ASC_NODE":3.8447,"ARG_OF_PERICENTER":253.487,"MEAN_ANOMALY":106.603,"EPHEMERIS_TYPE":0,"CLASSIFICATION_TYPE":"U","NORAD_CAT_ID":56770,"ELEMENT_SET_NO":999,"REV_AT_EPOCH":15222,"BSTAR":2.8956148e-5,"MEAN_MOTION_DOT":2.53e-6,"MEAN_MOTION_DDOT":0},{"OBJECT_NAME":"FENGYUN 1C DEB","OBJECT_ID":"1999-025RK","EPOCH":"2026-03-09T17:38:14.291232","MEAN_MOTION":14.95383795,"ECCENTRICITY":0.00371964,"INCLINATION":98.9196,"RA_OF_ASC_NODE":352.1506,"ARG_OF_PERICENTER":284.0168,"MEAN_ANOMALY":136.3268,"EPHEMERIS_TYPE":0,"CLASSIFICATION_TYPE":"U","NORAD_CAT_ID":30106,"ELEMENT_SET_NO":999,"REV_AT_EPOCH":99840,"BSTAR":0.0053227568,"MEAN_MOTION_DOT":0.0005999,"MEAN_MOTION_DDOT":0}]
